STARLINK-30535
1 58001U 23153L   26061.16668981  .02249770  00000+0  93337-1 0  9994
2 58001  43.0001 109.0377 0001685 267.9601  17.8773 15.19775117  5824
STARLINK-30966
1 58454U 23183T   26061.16668981  .02391675  00000+0  98554-1 0  9997
2 58454  43.0001  83.8956 0001265 245.3573 203.7541 15.19786518  5815
